{
  "type": "FeatureCollection",
  "features": [
    {
      "type": "Feature",
      "properties": {
        "norad_id": 66654,
        "name": "JACK E",
        "group": "last-30-days",
        "lat": -49.90366536326421,
        "lon": -65.30404175622671,
        "alt_km": 599.2571127232068,
        "timestamp": "2025-12-24T09:46:29.714164+00:00",
        "meta_object_name": "JACK E",
        "meta_object_id": "2025-274E",
        "meta_epoch": "2025-12-23T14:41:17.496384",
        "meta_mean_motion": 14.92137123,
        "meta_eccentricity": 0.00122814,
        "meta_inclination": 97.7407,
        "meta_ra_of_asc_node": 284.6177,
        "meta_arg_of_pericenter": 214.8879,
        "meta_mean_anomaly": 145.1536,
        "meta_ephemeris_type": 0,
        "meta_classification_type": "U",
        "meta_norad_cat_id": 66654,
        "meta_element_set_no": 999,
        "meta_rev_at_epoch": 402,
        "meta_bstar": 0.00030019774,
        "meta_mean_motion_dot": 3.001e-05,
        "meta_mean_motion_ddot": 0,
        "tle_line1": "1 66654U 25274E   25357.61200806  .00003001  00000+0  30020-3 0  9993",
        "tle_line2": "2 66654  97.7407 284.6177 0012281 214.8879 145.1536 14.92137123  4025"
      },
      "geometry": {
        "type": "Point",
        "coordinates": [
          -65.30404175622671,
          -49.90366536326421
        ]
      }
    },
    {
      "type": "Feature",
      "properties": {
        "norad_id": 66655,
        "name": "2025-274F",
        "group": "last-30-days",
        "lat": -81.63114946315487,
        "lon": -7.129315687540106,
        "alt_km": 600.5266627697401,
        "timestamp": "2025-12-24T09:46:29.714174+00:00",
        "meta_object_name": "2025-274F",
        "meta_object_id": "2025-274F",
        "meta_epoch": "2025-12-23T18:03:32.512032",
        "meta_mean_motion": 14.91192024,
        "meta_eccentricity": 0.0004467,
        "meta_inclination": 97.7344,
        "meta_ra_of_asc_node": 284.7333,
        "meta_arg_of_pericenter": 345.6891,
        "meta_mean_anomaly": 14.42,
        "meta_ephemeris_type": 0,
        "meta_classification_type": "U",
        "meta_norad_cat_id": 66655,
        "meta_element_set_no": 999,
        "meta_rev_at_epoch": 404,
        "meta_bstar": 2.104e-05,
        "meta_mean_motion_dot": 1.54e-06,
        "meta_mean_motion_ddot": 0,
        "tle_line1": "1 66655U 25274F   25357.75245963  .00000154  00000+0  21040-4 0  9991",
        "tle_line2": "2 66655  97.7344 284.7333 0004467 345.6891  14.4200 14.91192024  4043"
      },
      "geometry": {
        "type": "Point",
        "coordinates": [
          -7.129315687540106,
          -81.63114946315487
        ]
      }
    },
    {
      "type": "Feature",
      "properties": {
        "norad_id": 66656,
        "name": "2025-274G",
        "group": "last-30-days",
        "lat": -31.479343277328745,
        "lon": -69.81652742051854,
        "alt_km": 600.3967172884995,
        "timestamp": "2025-12-24T09:46:29.714185+00:00",
        "meta_object_name": "2025-274G",
        "meta_object_id": "2025-274G",
        "meta_epoch": "2025-12-23T12:59:51.304992",
        "meta_mean_motion": 14.9233298,
        "meta_eccentricity": 0.00128585,
        "meta_inclination": 97.7403,
        "meta_ra_of_asc_node": 284.5555,
        "meta_arg_of_pericenter": 217.0051,
        "meta_mean_anomaly": 143.0282,
        "meta_ephemeris_type": 0,
        "meta_classification_type": "U",
        "meta_norad_cat_id": 66656,
        "meta_element_set_no": 999,
        "meta_rev_at_epoch": 401,
        "meta_bstar": 0.00031722923,
        "meta_mean_motion_dot": 3.191e-05,
        "meta_mean_motion_ddot": 0,
        "tle_line1": "1 66656U 25274G   25357.54156603  .00003191  00000+0  31723-3 0  9993",
        "tle_line2": "2 66656  97.7403 284.5555 0012858 217.0051 143.0282 14.92332980  4011"
      },
      "geometry": {
        "type": "Point",
        "coordinates": [
          -69.81652742051854,
          -31.479343277328745
        ]
      }
    },
    {
      "type": "Feature",
      "properties": {
        "norad_id": 66657,
        "name": "SPIRONE",
        "group": "last-30-days",
        "lat": -13.864076383705093,
        "lon": -72.66333166914767,
        "alt_km": 597.842464829645,
        "timestamp": "2025-12-24T09:46:29.714195+00:00",
        "meta_object_name": "SPIRONE",
        "meta_object_id": "2025-274H",
        "meta_epoch": "2025-12-23T08:05:35.471904",
        "meta_mean_motion": 14.9251002,
        "meta_eccentricity": 0.00109083,
        "meta_inclination": 97.74,
        "meta_ra_of_asc_node": 284.3612,
        "meta_arg_of_pericenter": 235.5938,
        "meta_mean_anomaly": 124.4251,
        "meta_ephemeris_type": 0,
        "meta_classification_type": "U",
        "meta_norad_cat_id": 66657,
        "meta_element_set_no": 999,
        "meta_rev_at_epoch": 398,
        "meta_bstar": 0.00029728436,
        "meta_mean_motion_dot": 2.999e-05,
        "meta_mean_motion_ddot": 0,
        "tle_line1": "1 66657U 25274H   25357.33721611  .00002999  00000+0  29728-3 0  9995",
        "tle_line2": "2 66657  97.7400 284.3612 0010908 235.5938 124.4251 14.92510020  3981"
      },
      "geometry": {
        "type": "Point",
        "coordinates": [
          -72.66333166914767,
          -13.864076383705093
        ]
      }
    },
    {
      "type": "Feature",
      "properties": {
        "norad_id": 66658,
        "name": "2025-274J",
        "group": "last-30-days",
        "lat": 3.1758780808399836,
        "lon": -75.01157154206987,
        "alt_km": 597.1021196549382,
        "timestamp": "2025-12-24T09:46:29.714211+00:00",
        "meta_object_name": "2025-274J",
        "meta_object_id": "2025-274J",
        "meta_epoch": "2025-12-24T01:42:59.130144",
        "meta_mean_motion": 14.92689214,
        "meta_eccentricity": 0.0011473,
        "meta_inclination": 97.7401,
        "meta_ra_of_asc_node": 285.0907,
        "meta_arg_of_pericenter": 236.2602,
        "meta_mean_anomaly": 123.7524,
        "meta_ephemeris_type": 0,
        "meta_classification_type": "U",
        "meta_norad_cat_id": 66658,
        "meta_element_set_no": 999,
        "meta_rev_at_epoch": 409,
        "meta_bstar": 0.00039501,
        "meta_mean_motion_dot": 4.023e-05,
        "meta_mean_motion_ddot": 0,
        "tle_line1": "1 66658U 25274J   25358.07151771  .00004023  00000+0  39501-3 0  9992",
        "tle_line2": "2 66658  97.7401 285.0907 0011473 236.2602 123.7524 14.92689214  4092"
      },
      "geometry": {
        "type": "Point",
        "coordinates": [
          -75.01157154206987,
          3.1758780808399836
        ]
      }
    },
    {
      "type": "Feature",
      "properties": {
        "norad_id": 66659,
        "name": "JACK K",
        "group": "last-30-days",
        "lat": 21.41617714156811,
        "lon": -77.62863893102643,
        "alt_km": 595.8190877300731,
        "timestamp": "2025-12-24T09:46:29.714222+00:00",
        "meta_object_name": "JACK K",
        "meta_object_id": "2025-274K",
        "meta_epoch": "2025-12-24T01:38:05.987040",
        "meta_mean_motion": 14.92867663,
        "meta_eccentricity": 0.0012161,
        "meta_inclination": 97.7399,
        "meta_ra_of_asc_node": 285.0957,
        "meta_arg_of_pericenter": 237.9041,
        "meta_mean_anomaly": 122.0998,
        "meta_ephemeris_type": 0,
        "meta_classification_type": "U",
        "meta_norad_cat_id": 66659,
        "meta_element_set_no": 999,
        "meta_rev_at_epoch": 409,
        "meta_bstar": 0.00028624,
        "meta_mean_motion_dot": 2.913e-05,
        "meta_mean_motion_ddot": 0,
        "tle_line1": "1 66659U 25274K   25358.06812485  .00002913  00000+0  28624-3 0  9998",
        "tle_line2": "2 66659  97.7399 285.0957 0012161 237.9041 122.0998 14.92867663  4097"
      },
      "geometry": {
        "type": "Point",
        "coordinates": [
          -77.62863893102643,
          21.41617714156811
        ]
      }
    },
    {
      "type": "Feature",
      "properties": {
        "norad_id": 66660,
        "name": "K-HERO",
        "group": "last-30-days",
        "lat": 36.200075863706424,
        "lon": -80.27647676800414,
        "alt_km": 594.3592697203785,
        "timestamp": "2025-12-24T09:46:29.714232+00:00",
        "meta_object_name": "K-HERO",
        "meta_object_id": "2025-274L",
        "meta_epoch": "2025-12-24T01:34:07.982688",
        "meta_mean_motion": 14.93019085,
        "meta_eccentricity": 0.0012776,
        "meta_inclination": 97.7406,
        "meta_ra_of_asc_node": 285.1005,
        "meta_arg_of_pericenter": 238.7636,
        "meta_mean_anomaly": 121.2332,
        "meta_ephemeris_type": 0,
        "meta_classification_type": "U",
        "meta_norad_cat_id": 66660,
        "meta_element_set_no": 999,
        "meta_rev_at_epoch": 409,
        "meta_bstar": 0.00028901,
        "meta_mean_motion_dot": 2.953e-05,
        "meta_mean_motion_ddot": 0,
        "tle_line1": "1 66660U 25274L   25358.06537017  .00002953  00000+0  28901-3 0  9997",
        "tle_line2": "2 66660  97.7406 285.1005 0012776 238.7636 121.2332 14.93019085  4095"
      },
      "geometry": {
        "type": "Point",
        "coordinates": [
          -80.27647676800414,
          36.200075863706424
        ]
      }
    }
  ]
}